0 SL-8 R/B
1 07273U 74024J   13282.03039324 -.00000038  00000-0 -19406-3 0  9857
2 07273 074.0227 319.0319 0076331 239.1134 125.4320 12.30414681772948
0 SL-8 R/B
1 07273U 74024J   13284.16037645 -.00000040  00000-0 -21118-3 0  9864
2 07273 074.0225 316.3020 0076307 236.0606 200.1455 12.30414980773200
0 SL-8 R/B
1 07273U 74024J   13286.44363499  .00000048  00000-0  53243-3 0  9877
2 07273 074.0227 313.3772 0076306 232.7138 233.8698 12.30415161773489
0 SL-8 R/B
1 07273U 74024J   13288.49045661  .00000043  00000-0  48557-3 0  9880
2 07273 074.0225 310.7538 0076274 229.7992 300.2062 12.30416182773732
0 SL-8 R/B
1 07273U 74024J   13290.52267536  .00000054  00000-0  58280-3 0  9891
2 07273 074.0224 308.1488 0076242 226.8951 301.8785 12.30416316773989
0 SL-8 R/B
1 07273U 74024J   13292.62967404  .00000039  00000-0  45653-3 0  9900
2 07273 074.0225 305.4481 0076222 223.8398 274.8307 12.30416774774240
0 SL-8 R/B
1 07273U 74024J   13294.66205838  .00000083  00000-0  82465-3 0  9914
2 07273 074.0225 302.8432 0076183 220.9194 277.2578 12.30416741774493
